[{"OBJECT_NAME":"ONEWEB-0328","OBJECT_ID":"2021-083M","EPOCH":"2025-10-26T21:20:47.802624","MEAN_MOTION":13.13471583,"ECCENTRICITY":0.00016533,"INCLINATION":87.9039,"RA_OF_ASC_NODE":6.5653,"ARG_OF_PERICENTER":96.8929,"MEAN_ANOMALY":263.2388,"EPHEMERIS_TYPE":0,"CLASSIFICATION_TYPE":"U","NORAD_CAT_ID":49197,"ELEMENT_SET_NO":999,"REV_AT_EPOCH":20027,"BSTAR":-0.0021184866,"MEAN_MOTION_DOT":-7.61e-6,"MEAN_MOTION_DDOT":0},{"OBJECT_NAME":"ONEWEB-0331","OBJECT_ID":"2021-083N","EPOCH":"2025-10-26T16:12:29.141856","MEAN_MOTION":13.18685022,"ECCENTRICITY":0.0001649,"INCLINATION":87.9227,"RA_OF_ASC_NODE":21.8219,"ARG_OF_PERICENTER":90.3689,"MEAN_ANOMALY":269.7632,"EPHEMERIS_TYPE":0,"CLASSIFICATION_TYPE":"U","NORAD_CAT_ID":49198,"ELEMENT_SET_NO":999,"REV_AT_EPOCH":19923,"BSTAR":-1.5767725e-5,"MEAN_MOTION_DOT":7.0e-8,"MEAN_MOTION_DDOT":0},{"OBJECT_NAME":"ONEWEB-0333","OBJECT_ID":"2021-083P","EPOCH":"2025-10-26T21:13:29.390880","MEAN_MOTION":13.13470842,"ECCENTRICITY":0.00017926,"INCLINATION":87.9021,"RA_OF_ASC_NODE":6.6271,"ARG_OF_PERICENTER":102.8014,"MEAN_ANOMALY":257.3316,"EPHEMERIS_TYPE":0,"CLASSIFICATION_TYPE":"U","NORAD_CAT_ID":49199,"ELEMENT_SET_NO":999,"REV_AT_EPOCH":20028,"BSTAR":0.00049956422,"MEAN_MOTION_DOT":1.95e-6,"MEAN_MOTION_DDOT":0},{"OBJECT_NAME":"ONEWEB-0334","OBJECT_ID":"2021-083Q","EPOCH":"2025-10-26T19:28:44.942592","MEAN_MOTION":13.20770621,"ECCENTRICITY":0.00023553,"INCLINATION":87.9191,"RA_OF_ASC_NODE":321.0078,"ARG_OF_PERICENTER":118.2913,"MEAN_ANOMALY":241.8458,"EPHEMERIS_TYPE":0,"CLASSIFICATION_TYPE":"U","NORAD_CAT_ID":49200,"ELEMENT_SET_NO":999,"REV_AT_EPOCH":20598,"BSTAR":4.6153502e-5,"MEAN_MOTION_DOT":3.2e-7,"MEAN_MOTION_DDOT":0},{"OBJECT_NAME":"ONEWEB-0335","OBJECT_ID":"2021-083R","EPOCH":"2025-10-26T22:55:52.111200","MEAN_MOTION":13.13471276,"ECCENTRICITY":0.00016753,"INCLINATION":87.9024,"RA_OF_ASC_NODE":6.6007,"ARG_OF_PERICENTER":95.0011,"MEAN_ANOMALY":265.1309,"EPHEMERIS_TYPE":0,"CLASSIFICATION_TYPE":"U","NORAD_CAT_ID":49201,"ELEMENT_SET_NO":999,"REV_AT_EPOCH":20030,"BSTAR":0.0008132725,"MEAN_MOTION_DOT":3.1e-6,"MEAN_MOTION_DDOT":0},{"OBJECT_NAME":"ONEWEB-0336","OBJECT_ID":"2021-083S","EPOCH":"2025-10-26T22:14:25.994400","MEAN_MOTION":13.1347106,"ECCENTRICITY":0.00016681,"INCLINATION":87.9022,"RA_OF_ASC_NODE":6.6012,"ARG_OF_PERICENTER":87.0891,"MEAN_ANOMALY":273.0429,"EPHEMERIS_TYPE":0,"CLASSIFICATION_TYPE":"U","NORAD_CAT_ID":49202,"ELEMENT_SET_NO":999,"REV_AT_EPOCH":20029,"BSTAR":-7.9695426e-5,"MEAN_MOTION_DOT":-1.6e-7,"MEAN_MOTION_DDOT":0},{"OBJECT_NAME":"ONEWEB-0337","OBJECT_ID":"2021-083T","EPOCH":"2025-10-26T15:10:04.778400","MEAN_MOTION":13.13471527,"ECCENTRICITY":0.00018985,"INCLINATION":87.9035,"RA_OF_ASC_NODE":6.6684,"ARG_OF_PERICENTER":94.0348,"MEAN_ANOMALY":266.0999,"EPHEMERIS_TYPE":0,"CLASSIFICATION_TYPE":"U","NORAD_CAT_ID":49203,"ELEMENT_SET_NO":999,"REV_AT_EPOCH":20025,"BSTAR":0.00058403417,"MEAN_MOTION_DOT":2.26e-6,"MEAN_MOTION_DDOT":0},{"OBJECT_NAME":"ONEWEB-0338","OBJECT_ID":"2021-083U","EPOCH":"2025-10-26T18:52:22.776672","MEAN_MOTION":13.20772303,"ECCENTRICITY":0.0002017,"INCLINATION":87.9196,"RA_OF_ASC_NODE":321.014,"ARG_OF_PERICENTER":101.4136,"MEAN_ANOMALY":258.7224,"EPHEMERIS_TYPE":0,"CLASSIFICATION_TYPE":"U","NORAD_CAT_ID":49204,"ELEMENT_SET_NO":999,"REV_AT_EPOCH":20600,"BSTAR":9.0732691e-5,"MEAN_MOTION_DOT":5.0e-7,"MEAN_MOTION_DDOT":0},{"OBJECT_NAME":"ONEWEB-0339","OBJECT_ID":"2021-083V","EPOCH":"2025-10-26T17:12:09.893952","MEAN_MOTION":13.13469033,"ECCENTRICITY":0.00019869,"INCLINATION":87.9031,"RA_OF_ASC_NODE":6.6342,"ARG_OF_PERICENTER":100.8055,"MEAN_ANOMALY":259.3298,"EPHEMERIS_TYPE":0,"CLASSIFICATION_TYPE":"U","NORAD_CAT_ID":49205,"ELEMENT_SET_NO":999,"REV_AT_EPOCH":20024,"BSTAR":0.00072182269,"MEAN_MOTION_DOT":2.76e-6,"MEAN_MOTION_DDOT":0},{"OBJECT_NAME":"ONEWEB-0340","OBJECT_ID":"2021-083W","EPOCH":"2025-10-26T17:42:44.877888","MEAN_MOTION":13.18686164,"ECCENTRICITY":0.0001739,"INCLINATION":87.9227,"RA_OF_ASC_NODE":21.8137,"ARG_OF_PERICENTER":99.1628,"MEAN_ANOMALY":260.9701,"EPHEMERIS_TYPE":0,"CLASSIFICATION_TYPE":"U","NORAD_CAT_ID":49206,"ELEMENT_SET_NO":999,"REV_AT_EPOCH":19920,"BSTAR":0.00011526235,"MEAN_MOTION_DOT":5.8e-7,"MEAN_MOTION_DDOT":0},{"OBJECT_NAME":"ONEWEB-0341","OBJECT_ID":"2021-083X","EPOCH":"2025-10-26T17:52:14.687616","MEAN_MOTION":13.18686112,"ECCENTRICITY":0.00021797,"INCLINATION":87.9225,"RA_OF_ASC_NODE":21.8247,"ARG_OF_PERICENTER":90.3091,"MEAN_ANOMALY":269.8291,"EPHEMERIS_TYPE":0,"CLASSIFICATION_TYPE":"U","NORAD_CAT_ID":49207,"ELEMENT_SET_NO":999,"REV_AT_EPOCH":19922,"BSTAR":5.364674e-5,"MEAN_MOTION_DOT":3.4e-7,"MEAN_MOTION_DDOT":0},{"OBJECT_NAME":"ONEWEB-0342","OBJECT_ID":"2021-083Y","EPOCH":"2025-10-26T19:01:28.391808","MEAN_MOTION":13.20771025,"ECCENTRICITY":0.00019366,"INCLINATION":87.9202,"RA_OF_ASC_NODE":320.981,"ARG_OF_PERICENTER":96.8381,"MEAN_ANOMALY":263.2973,"EPHEMERIS_TYPE":0,"CLASSIFICATION_TYPE":"U","NORAD_CAT_ID":49208,"ELEMENT_SET_NO":999,"REV_AT_EPOCH":20597,"BSTAR":0.00022067101,"MEAN_MOTION_DOT":1.03e-6,"MEAN_MOTION_DDOT":0},{"OBJECT_NAME":"ONEWEB-0343","OBJECT_ID":"2021-083Z","EPOCH":"2025-10-26T18:04:02.806464","MEAN_MOTION":13.18682017,"ECCENTRICITY":0.00023544,"INCLINATION":87.9227,"RA_OF_ASC_NODE":21.8143,"ARG_OF_PERICENTER":99.5408,"MEAN_ANOMALY":260.599,"EPHEMERIS_TYPE":0,"CLASSIFICATION_TYPE":"U","NORAD_CAT_ID":49209,"ELEMENT_SET_NO":999,"REV_AT_EPOCH":19927,"BSTAR":-0.00061067276,"MEAN_MOTION_DOT":-2.28e-6,"MEAN_MOTION_DDOT":0},{"OBJECT_NAME":"ONEWEB-0344","OBJECT_ID":"2021-083AA","EPOCH":"2025-10-26T22:33:56.185632","MEAN_MOTION":13.13469367,"ECCENTRICITY":0.00020615,"INCLINATION":87.9024,"RA_OF_ASC_NODE":6.6255,"ARG_OF_PERICENTER":90.0769,"MEAN_ANOMALY":270.0596,"EPHEMERIS_TYPE":0,"CLASSIFICATION_TYPE":"U","NORAD_CAT_ID":49210,"ELEMENT_SET_NO":999,"REV_AT_EPOCH":20027,"BSTAR":0.00091929589,"MEAN_MOTION_DOT":3.48e-6,"MEAN_MOTION_DDOT":0},{"OBJECT_NAME":"ONEWEB-0345","OBJECT_ID":"2021-083AB","EPOCH":"2025-10-26T15:02:57.288480","MEAN_MOTION":13.13472283,"ECCENTRICITY":0.00021518,"INCLINATION":87.9029,"RA_OF_ASC_NODE":6.6435,"ARG_OF_PERICENTER":92.3379,"MEAN_ANOMALY":267.7996,"EPHEMERIS_TYPE":0,"CLASSIFICATION_TYPE":"U","NORAD_CAT_ID":49211,"ELEMENT_SET_NO":999,"REV_AT_EPOCH":20024,"BSTAR":0.00038324674,"MEAN_MOTION_DOT":1.53e-6,"MEAN_MOTION_DDOT":0},{"OBJECT_NAME":"ONEWEB-0346","OBJECT_ID":"2021-083AC","EPOCH":"2025-10-26T16:10:06.103200","MEAN_MOTION":13.18686196,"ECCENTRICITY":0.00012538,"INCLINATION":87.9227,"RA_OF_ASC_NODE":21.8469,"ARG_OF_PERICENTER":88.9007,"MEAN_ANOMALY":271.2269,"EPHEMERIS_TYPE":0,"CLASSIFICATION_TYPE":"U","NORAD_CAT_ID":49212,"ELEMENT_SET_NO":999,"REV_AT_EPOCH":19920,"BSTAR":-2.1208847e-5,"MEAN_MOTION_DOT":5.0e-8,"MEAN_MOTION_DDOT":0},{"OBJECT_NAME":"ONEWEB-0348","OBJECT_ID":"2021-083AD","EPOCH":"2025-10-26T18:47:50.059392","MEAN_MOTION":13.20771901,"ECCENTRICITY":0.00019024,"INCLINATION":87.9191,"RA_OF_ASC_NODE":320.9933,"ARG_OF_PERICENTER":75.1669,"MEAN_ANOMALY":284.9675,"EPHEMERIS_TYPE":0,"CLASSIFICATION_TYPE":"U","NORAD_CAT_ID":49213,"ELEMENT_SET_NO":999,"REV_AT_EPOCH":20600,"BSTAR":0.00022359119,"MEAN_MOTION_DOT":1.04e-6,"MEAN_MOTION_DDOT":0}]
