ONEWEB-0328             
1 49197U 21083M   25299.88944216 -.00000761  00000+0 -21185-2 0  9997
2 49197  87.9039   6.5653 0001653  96.8929 263.2388 13.13471583200270
ONEWEB-0331             
1 49198U 21083N   25299.67533729  .00000007  00000+0 -15768-4 0  9992
2 49198  87.9227  21.8219 0001649  90.3689 269.7632 13.18685022199231
ONEWEB-0333             
1 49199U 21083P   25299.88436795  .00000195  00000+0  49956-3 0  9993
2 49199  87.9021   6.6271 0001792 102.8014 257.3316 13.13470842200280
ONEWEB-0334             
1 49200U 21083Q   25299.81163128  .00000032  00000+0  46154-4 0  9994
2 49200  87.9191 321.0078 0002355 118.2913 241.8458 13.20770621205988
ONEWEB-0335             
1 49201U 21083R   25299.95546425  .00000310  00000+0  81327-3 0  9994
2 49201  87.9024   6.6007 0001675  95.0011 265.1309 13.13471276200308
ONEWEB-0336             
1 49202U 21083S   25299.92668975 -.00000016  00000+0 -79695-4 0  9998
2 49202  87.9022   6.6012 0001668  87.0891 273.0429 13.13471060200292
ONEWEB-0337             
1 49203U 21083T   25299.63199975  .00000226  00000+0  58403-3 0  9990
2 49203  87.9035   6.6684 0001898  94.0348 266.0999 13.13471527200250
ONEWEB-0338             
1 49204U 21083U   25299.78637473  .00000050  00000+0  90733-4 0  9995
2 49204  87.9196 321.0140 0002017 101.4136 258.7224 13.20772303206004
ONEWEB-0339             
1 49205U 21083V   25299.71678118  .00000276  00000+0  72182-3 0  9997
2 49205  87.9031   6.6342 0001986 100.8055 259.3298 13.13469033200243
ONEWEB-0340             
1 49206U 21083W   25299.73801942  .00000058  00000+0  11526-3 0  9996
2 49206  87.9227  21.8137 0001739  99.1628 260.9701 13.18686164199205
ONEWEB-0341             
1 49207U 21083X   25299.74461444  .00000034  00000+0  53647-4 0  9992
2 49207  87.9225  21.8247 0002179  90.3091 269.8291 13.18686112199229
ONEWEB-0342             
1 49208U 21083Y   25299.79268972  .00000103  00000+0  22067-3 0  9997
2 49208  87.9202 320.9810 0001936  96.8381 263.2973 13.20771025205973
ONEWEB-0343             
1 49209U 21083Z   25299.75281026 -.00000228  00000+0 -61067-3 0  9992
2 49209  87.9227  21.8143 0002354  99.5408 260.5990 13.18682017199275
ONEWEB-0344             
1 49210U 21083AA  25299.94023363  .00000348  00000+0  91930-3 0  9996
2 49210  87.9024   6.6255 0002061  90.0769 270.0596 13.13469367200275
ONEWEB-0345             
1 49211U 21083AB  25299.62705195  .00000153  00000+0  38325-3 0  9995
2 49211  87.9029   6.6435 0002151  92.3379 267.7996 13.13472283200248
ONEWEB-0346             
1 49212U 21083AC  25299.67368175  .00000005  00000+0 -21209-4 0  9995
2 49212  87.9227  21.8469 0001253  88.9007 271.2269 13.18686196199207
ONEWEB-0348             
1 49213U 21083AD  25299.78321828  .00000104  00000+0  22359-3 0  9997
2 49213  87.9191 320.9933 0001902  75.1669 284.9675 13.20771901206001
